TEVEL2-1                
1 63217U 25052H   26068.64782323  .00020683  00000+0  70600-3 0  9994
2 63217  97.3991 324.7682 0004767 104.8919 255.2849 15.30341923 54855
STARLINK-33802          
1 64392U 25127Y   26068.30004187  .00016788  00000+0  61842-3 0  9999
2 64392  43.0050 182.3191 0002292 253.0323 107.0277 15.27567178 42454
